SIRION PATHFINDER-2     
1 43759U 18099B   26156.02478279  .00006514  00000+0  35764-3 0  9997
2 43759  97.4254 205.3716 0008177 352.4526   7.6582 15.14438134410787
CORVUS BC4              
1 43767U 18099K   26156.08104939  .00004690  00000+0  27358-3 0  9994
2 43767  97.4066 199.4161 0009377  51.3830 308.8239 15.12392421410578
M2 PATHFINDER           
1 45727U 20037E   26156.00997133  .00003523  00000+0  25503-3 0  9999
2 45727  97.8152 347.1040 0011387 188.4762 171.6273 15.04619528323662
NETSAT-4                
1 46504U 20068U   26156.00294780  .00019726  00000+0  44237-3 0  9992
2 46504  97.8608 163.2689 0005519  25.5578 334.5940 15.43442394313897
NETSAT-3                
1 46505U 20068V   26155.99979954  .00021542  00000+0  50249-3 0  9992
2 46505  97.8657 161.4976 0005896  41.9409 318.2287 15.42241953313805
NETSAT-1                
1 46506U 20068W   26155.22385502  .00015061  00000+0  45524-3 0  9998
2 46506  97.8744 155.1432 0006370  67.0325 293.1588 15.34317185313317
NETSAT-2                
1 46507U 20068X   26155.99461362  .00026900  00000+0  56239-3 0  9991
2 46507  97.8620 163.1111 0005051  59.0230 301.1513 15.45455402313859
GREENCUBE (IO-117)      
1 53109U 22080E   26152.46502029 -.00000003  00000+0  00000+0 0  9996
2 53109  70.1435 303.7143 0008869 293.3663  66.6064  6.42583280 91055
SITRO-AIS 5 (KATYS)     
1 57176U 23091L   26156.16159274  .00011264  00000+0  39958-3 0  9996
2 57176  97.5061 219.9490 0012571 140.6653 219.5503 15.29165590162503
SITRO-AIS 6 (CHIRKIN)   
1 57192U 23091AC  26156.17857457  .00010133  00000+0  39953-3 0  9992
2 57192  97.5069 219.1485 0012811 143.6499 216.5612 15.25695506162456
SITRO-AIS 8 (ANOKHIN)   
1 57193U 23091AD  26156.06879314  .00017402  00000+0  56759-3 0  9996
2 57193  97.5058 221.3953 0011751 137.2498 222.9659 15.31795112162598
SITRO-AIS 7 (FARTUSHNIY)
1 57194U 23091AE  26156.17928753  .00009930  00000+0  39523-3 0  9998
2 57194  97.5068 218.9802 0012634 144.6173 215.5905 15.25389367162448
SITRO-AIS 10 (BURDAEV)  
1 57199U 23091AK  26156.08576786  .00025025  00000+0  66680-3 0  9995
2 57199  97.5081 226.3431 0007967 115.4757 244.7313 15.38133131162904
SITRO-AIS 9 (SHCHUKIN)  
1 57201U 23091AM  26156.17345868  .00018348  00000+0  49738-3 0  9999
2 57201  97.5078 226.1721 0008189 115.4427 244.7665 15.37662122162901
SITRO-AIS 12 (SMIRENNIY)
1 57204U 23091AQ  26156.10128164  .00024334  00000+0  65239-3 0  9999
2 57204  97.5093 226.5581 0007844 110.8166 249.3919 15.37950129162916
SITRO-AIS 11 (SHEFFER)  
1 57208U 23091AU  26156.18304356  .00018671  00000+0  49479-3 0  9995
2 57208  97.5089 226.8808 0007770 110.5210 249.6869 15.38364353162944
SITRO-AIS 25            
1 59066U 24039R   26156.18217203  .00004347  00000+0  33877-3 0  9996
2 59066  95.3907 226.8432 0145123  10.8821 349.5486 14.93444247122932
SITRO-AIS 26            
1 59067U 24039S   26156.18191169  .00004209  00000+0  32965-3 0  9993
2 59067  95.3908 226.7433 0145461  11.4501 348.9973 14.93241056122927
SITRO-AIS 27            
1 59068U 24039T   26156.15551711  .00004360  00000+0  33835-3 0  9999
2 59068  95.3914 226.9912 0144488  10.2723 350.1399 14.93661462122946
SITRO-AIS 28            
1 59071U 24039U   26156.20022340  .00004421  00000+0  34295-3 0  9999
2 59071  95.3912 227.0686 0144300   9.9116 350.4901 14.93693919122957
GRBBETA                 
1 60237U 24128C   26155.74246985  .00004952  00000+0  34080-3 0  9996
2 60237  61.9904 259.9266 0042354 132.1755 228.2947 15.06546882104396
OOV-CUBE (TUBSAT-30)    
1 60240U 24128F   26156.01171044  .00003200  00000+0  24869-3 0  9993
2 60240  61.9954 268.0264 0046140 131.0618 229.4474 15.02717688104283
ROBUSTA-3A (MEDITERRAN*)
1 60243U 24128J   26155.76474441  .00009298  00000+0  54647-3 0  9994
2 60243  61.9867 252.1698 0043122 125.3968 235.1167 15.11508511104540
LASARSAT                
1 62391U 24247Q   26154.92379714  .00036882  00000+0  75515-3 0  9992
2 62391  44.9754 336.7002 0008047 258.6055 101.3931 15.45494859 81266
CROCUBE                 
1 62394U 24247T   26155.77662696  .00038955  00000+0  74814-3 0  9997
2 62394  44.9728 329.4431 0007951 266.3385  93.6596 15.47331526 81421
FORESAIL-1 PRIME        
1 66778U 25276DS  26156.00455478  .00006190  00000+0  30253-3 0  9990
2 66778  97.4202 229.4991 0003563 129.0934 231.0618 15.18588249 28553
KNACKSAT-2              
1 67683U 98067XZ  26156.11067753  .00054547  00000+0  69168-3 0  9997
2 67683  51.6316 355.1703 0010742 163.6532 196.4809 15.58840087 18392
