OBJECT_NAME,OBJECT_ID,EPOCH,MEAN_MOTION,ECCENTRICITY,INCLINATION,RA_OF_ASC_NODE,ARG_OF_PERICENTER,MEAN_ANOMALY,EPHEMERIS_TYPE,CLASSIFICATION_TYPE,NORAD_CAT_ID,ELEMENT_SET_NO,REV_AT_EPOCH,BSTAR,MEAN_MOTION_DOT,MEAN_MOTION_DDOT
SIRION PATHFINDER-2,2018-099B,2026-06-05T00:35:41.233056,15.14438134,.0008177,97.4254,205.3716,352.4526,7.6582,0,U,43759,999,41078,.35764E-3,.6514E-4,0
CORVUS BC4,2018-099K,2026-06-05T01:56:42.667296,15.12392421,.0009377,97.4066,199.4161,51.3830,308.8239,0,U,43767,999,41057,.27358E-3,.469E-4,0
M2 PATHFINDER,2020-037E,2026-06-05T00:14:21.522912,15.04619528,.0011387,97.8152,347.1040,188.4762,171.6273,0,U,45727,999,32366,.25503E-3,.3523E-4,0
NETSAT-4,2020-068U,2026-06-05T00:04:14.689920,15.43442394,.0005519,97.8608,163.2689,25.5578,334.5940,0,U,46504,999,31389,.44237E-3,.19726E-3,0
NETSAT-3,2020-068V,2026-06-04T23:59:42.680256,15.42241953,.0005896,97.8657,161.4976,41.9409,318.2287,0,U,46505,999,31380,.50249E-3,.21542E-3,0
NETSAT-1,2020-068W,2026-06-04T05:22:21.073728,15.34317185,.000637,97.8744,155.1432,67.0325,293.1588,0,U,46506,999,31331,.45524E-3,.15061E-3,0
NETSAT-2,2020-068X,2026-06-04T23:52:14.616768,15.45455402,.0005051,97.8620,163.1111,59.0230,301.1513,0,U,46507,999,31385,.56239E-3,.269E-3,0
GREENCUBE (IO-117),2022-080E,2026-06-01T11:09:37.753056,6.42583280,.00088692,70.1435,303.7143,293.3663,66.6064,0,U,53109,999,9105,0,-.3E-7,0
SITRO-AIS 5 (KATYS),2023-091L,2026-06-05T03:52:41.612736,15.29165590,.0012571,97.5061,219.9490,140.6653,219.5503,0,U,57176,999,16250,.39958E-3,.11264E-3,0
SITRO-AIS 6 (CHIRKIN),2023-091AC,2026-06-05T04:17:08.842848,15.25695506,.0012811,97.5069,219.1485,143.6499,216.5612,0,U,57192,999,16245,.39953E-3,.10133E-3,0
SITRO-AIS 8 (ANOKHIN),2023-091AD,2026-06-05T01:39:03.727296,15.31795112,.0011751,97.5058,221.3953,137.2498,222.9659,0,U,57193,999,16259,.56759E-3,.17402E-3,0
SITRO-AIS 7 (FARTUSHNIY),2023-091AE,2026-06-05T04:18:10.442592,15.25389367,.0012634,97.5068,218.9802,144.6173,215.5905,0,U,57194,999,16244,.39523E-3,.993E-4,0
SITRO-AIS 10 (BURDAEV),2023-091AK,2026-06-05T02:03:30.343104,15.38133131,.0007967,97.5081,226.3431,115.4757,244.7313,0,U,57199,999,16290,.6668E-3,.25025E-3,0
SITRO-AIS 9 (SHCHUKIN),2023-091AM,2026-06-05T04:09:46.829952,15.37662122,.0008189,97.5078,226.1721,115.4427,244.7665,0,U,57201,999,16290,.49738E-3,.18348E-3,0
SITRO-AIS 12 (SMIRENNIY),2023-091AQ,2026-06-05T02:25:50.733696,15.37950129,.0007844,97.5093,226.5581,110.8166,249.3919,0,U,57204,999,16291,.65239E-3,.24334E-3,0
SITRO-AIS 11 (SHEFFER),2023-091AU,2026-06-05T04:23:34.963584,15.38364353,.000777,97.5089,226.8808,110.5210,249.6869,0,U,57208,999,16294,.49479E-3,.18671E-3,0
SITRO-AIS 25,2024-039R,2026-06-05T04:22:19.663392,14.93444247,.0145123,95.3907,226.8432,10.8821,349.5486,0,U,59066,999,12293,.33877E-3,.4347E-4,0
SITRO-AIS 26,2024-039S,2026-06-05T04:21:57.170016,14.93241056,.0145461,95.3908,226.7433,11.4501,348.9973,0,U,59067,999,12292,.32965E-3,.4209E-4,0
SITRO-AIS 27,2024-039T,2026-06-05T03:43:56.678304,14.93661462,.0144488,95.3914,226.9912,10.2723,350.1399,0,U,59068,999,12294,.33835E-3,.436E-4,0
SITRO-AIS 28,2024-039U,2026-06-05T04:48:19.301760,14.93693919,.01443,95.3912,227.0686,9.9116,350.4901,0,U,59071,999,12295,.34295E-3,.4421E-4,0
GRBBETA,2024-128C,2026-06-04T17:49:09.395040,15.06546882,.00423545,61.9904,259.9266,132.1755,228.2947,0,U,60237,999,10439,.34080333E-3,.4952E-4,0
OOV-CUBE (TUBSAT-30),2024-128F,2026-06-05T00:16:51.782016,15.02717688,.004614,61.9954,268.0264,131.0618,229.4474,0,U,60240,999,10428,.24869E-3,.32E-4,0
ROBUSTA-3A (MEDITERRANEE),2024-128J,2026-06-04T18:21:13.917024,15.11508511,.0043122,61.9867,252.1698,125.3968,235.1167,0,U,60243,999,10454,.54647E-3,.9298E-4,0
LASARSAT,2024-247Q,2026-06-03T22:10:16.072896,15.45494859,.00080478,44.9754,336.7002,258.6055,101.3931,0,U,62391,999,8126,.75515127E-3,.36882E-3,0
CROCUBE,2024-247T,2026-06-04T18:38:20.569344,15.47331526,.0007951,44.9728,329.4431,266.3385,93.6596,0,U,62394,999,8142,.74814E-3,.38955E-3,0
FORESAIL-1 PRIME,2025-276DS,2026-06-05T00:06:33.532992,15.18588249,.0003563,97.4202,229.4991,129.0934,231.0618,0,U,66778,999,2855,.30253E-3,.619E-4,0
KNACKSAT-2,1998-067XZ,2026-06-05T02:39:22.538592,15.58840087,.0010742,51.6316,355.1703,163.6532,196.4809,0,U,67683,999,1839,.69168E-3,.54547E-3,0
